NORAD_CAT_ID,OBJECT_NAME,OBJECT_TYPE,EPOCH,MEAN_MOTION,ECCENTRICITY,INCLINATION,RA_OF_ASC_NODE,ARG_OF_PERICENTER,MEAN_ANOMALY,BSTAR,MEAN_MOTION_DOT,MEAN_MOTION_DDOT,TLE_LINE0,TLE_LINE1,TLE_LINE2,SEMIMAJOR_AXIS,PERIOD,APOGEE,PERIGEE,DECAYED
51469.0,STARLINK-3182,PAYLOAD,2022-02-08 18:00:00,15.96607228,0.0049425,53.2172,148.6822,180.4276,264.2107,-0.0019368,-0.00960999,0.00029827,0 STARLINK-3182,1 51469U 22010P   22039.75001157 -.00960999  29827-3 -19368-2 0  9996,2 51469  53.2172 148.6822 0049425 180.4276 264.2107 15.96607228  2099,6661.977,90.191,316.769,250.915,0.0
51469.0,STARLINK-3182,PAYLOAD,2022-02-08 22:00:01,15.96174805,0.0046928,53.2166,147.827,182.0134,141.1899,-0.0016454,-0.00787498,0.00020749,0 STARLINK-3182,1 51469U 22010P   22039.91668981 -.00787498  20749-3 -16454-2 0  9996,2 51469  53.2166 147.8270 0046928 182.0134 141.1899 15.96174805  1311,6663.18,90.216,316.314,253.776,0.0
51469.0,STARLINK-3182,PAYLOAD,2022-02-09 06:00:00,15.95667849,0.0044443,53.2175,146.1202,182.5199,256.8461,-0.0021204,-0.00972041,0.00030156,0 STARLINK-3182,1 51469U 22010P   22040.25001157 -.00972041  30156-3 -21204-2 0  9993,2 51469  53.2175 146.1202 0044443 182.5199 256.8461 15.95667849  2161,6664.590999999999,90.244,316.076,256.837,0.0
51469.0,STARLINK-3182,PAYLOAD,2022-02-09 11:40:55,15.95483687,0.0046813,53.2153,144.905,185.0651,174.9912,-0.00057213,-0.00265982,3.4927e-05,0 STARLINK-3182,1 51469U 22010P   22040.48675580 -.00265982  34927-4 -57213-3 0  9995,2 51469  53.2153 144.9050 0046813 185.0651 174.9912 15.95483687  2200,6665.104,90.255,318.17,255.768,0.0
51469.0,STARLINK-3182,PAYLOAD,2022-02-09 13:11:08,15.95464071,0.0046358999999999,53.2155,144.585,185.9096,174.1393,-0.00024406,-0.00115144,1.5578e-05,0 STARLINK-3182,1 51469U 22010P   22040.54940214 -.00115144  15578-4 -24406-3 0  9994,2 51469  53.2155 144.5850 0046359 185.9096 174.1393 15.95464071  1720,6665.159000000002,90.256,317.923,256.125,0.0
51469.0,STARLINK-3182,PAYLOAD,2022-02-09 20:00:01,15.94549378,0.0038812,53.2171,143.1408,186.6247,4.4444,-0.0022287,-0.0093677,0.0002788999999999,0 STARLINK-3182,1 51469U 22010P   22040.83334491 -.00936770  27890-3 -22287-2 0  9999,2 51469  53.2171 143.1408 0038812 186.6247   4.4444 15.94549378  2268,6667.706999999999,90.308,315.451,263.694,0.0
51469.0,STARLINK-3182,PAYLOAD,2022-02-10 06:00:00,15.93784187,0.0034628,53.2174,141.0122,189.094,234.6205,-0.0024728,-0.00980726,0.00030069,0 STARLINK-3182,1 51469U 22010P   22041.25001157 -.00980726  30069-3 -24728-2 0  9990,2 51469  53.2174 141.0122 0034628 189.0940 234.6205 15.93784187  2326,6669.840999999999,90.351,314.803,268.61,0.0
51469.0,STARLINK-3182,PAYLOAD,2022-02-10 14:00:01,15.93134889,0.0031134,53.2174,139.3148,192.0145,345.0433,-0.0024822,-0.00940032,0.00027672,0 STARLINK-3182,1 51469U 22010P   22041.58335648 -.00940032  27672-3 -24822-2 0  9998,2 51469  53.2174 139.3148 0031134 192.0145 345.0433 15.93134889  2388,6671.653,90.388,314.29,272.747,0.0
51469.0,STARLINK-3182,PAYLOAD,2022-02-10 17:46:38,15.93016552,0.0031996,53.2156,138.5068,194.3901,165.622,-0.00046086,-0.00177311,2.138800000000001e-05,0 STARLINK-3182,1 51469U 22010P   22041.74071831 -.00177311  21388-4 -46086-3 0  9995,2 51469  53.2156 138.5068 0031996 194.3901 165.6220 15.93016552  2400,6671.984,90.395,315.196,272.501,0.0
51469.0,STARLINK-3182,PAYLOAD,2022-02-10 22:00:00,15.92520786,0.0029116,53.2175,137.6159,194.2024,95.2992,-0.0026685,-0.00971796,0.00029208,0 STARLINK-3182,1 51469U 22010P   22041.91667824 -.00971796  29208-3 -26685-2 0  9996,2 51469  53.2175 137.6159 0029116 194.2024  95.2992 15.92520786  1634,6673.368,90.423,314.664,275.803,0.0
51469.0,STARLINK-3182,PAYLOAD,2022-02-11 06:00:00,15.91900088,0.0026638,53.2176,135.9184,196.064,205.1933,-0.0028244,-0.00988536,0.00029943,0 STARLINK-3182,1 51469U 22010P   22042.25001157 -.00988536  29943-3 -28244-2 0  9994,2 51469  53.2176 135.9184 0026638 196.0640 205.1933 15.91900088  2481,6675.103,90.458,314.749,279.187,0.0
51469.0,STARLINK-3182,PAYLOAD,2022-02-11 14:00:01,15.91252007,0.0021645,53.2174,134.2257,202.8863,309.3787,-0.0028394,-0.00950076,0.00027694,0 STARLINK-3182,1 51469U 22010P   22042.58334491 -.00950076  27694-3 -28394-2 0  9995,2 51469  53.2174 134.2257 0021645 202.8863 309.3787 15.91252007  2540,6676.915,90.495,313.232,284.328,0.0
51469.0,STARLINK-3182,PAYLOAD,2022-02-11 22:00:01,15.90627675,0.0019626,53.2173,132.5312,207.0164,55.5602,-0.0029785,-0.00961063,0.00028107,0 STARLINK-3182,1 51469U 22010P   22042.91668981 -.00961063  28107-3 -29785-2 0  9999,2 51469  53.2173 132.5312 0019626 207.0164  55.5602 15.90627675  2596,6678.6619999999975,90.53,313.635,287.42,0.0
51469.0,STARLINK-3182,PAYLOAD,2022-02-12 05:56:58,15.90274664,0.0019273,53.2154,130.8456,208.9335,151.0625,-3.2537e-05,-0.00013786,1.1059e-05,0 STARLINK-3182,1 51469U 22010P   22043.24789922 -.00013786  11059-4 -32537-4 0  9995,2 51469  53.2154 130.8456 0019273 208.9335 151.0625 15.90274664  2642,6679.651,90.55,314.389,288.642,0.0
51469.0,STARLINK-3182,PAYLOAD,2022-02-12 14:00:01,15.89371664,0.001389,53.2176,129.1505,221.8962,258.8357,-0.0032182,-0.00965335,0.00027996,0 STARLINK-3182,1 51469U 22010P   22043.58334491 -.00965335  27996-3 -32182-2 0  9995,2 51469  53.2176 129.1505 0013890 221.8962 258.8357 15.89371664  1903,6682.18,90.602,313.327,294.764,0.0
51469.0,STARLINK-3182,PAYLOAD,2022-02-12 22:00:00,15.88737146,0.0011907,53.2173,127.4605,231.0689,357.6433,-0.0032949,-0.00955144,0.000273,0 STARLINK-3182,1 51469U 22010P   22043.91667824 -.00955144  27300-3 -32949-2 0  9998,2 51469  53.2173 127.4605 0011907 231.0689 357.6433 15.88737146  2755,6683.959,90.638,313.783,297.866,0.0
51469.0,STARLINK-3182,PAYLOAD,2022-02-13 12:00:00,15.87647591,0.0008975,53.2172,124.5103,258.4483,67.3998,-0.0035752,-0.00889308,0.0,0 STARLINK-3182,1 51469U 22010P   22044.50001157 -.00889308  00000-0 -35752-2 0  9993,2 51469  53.2172 124.5103 0008975 258.4483  67.3998 15.87647591  2845,6687.017,90.7,314.884,302.881,0.0
51469.0,STARLINK-3182,PAYLOAD,2022-02-13 14:00:01,15.8749428,0.000864,53.2174,124.0895,262.195,180.1971,-0.0036364,-0.00896551,0.0,0 STARLINK-3182,1 51469U 22010P   22044.58334491 -.00896551  00000-0 -36364-2 0  9999,2 51469  53.2174 124.0895 0008640 262.1950 180.1971 15.87494280  2064,6687.448,90.709,315.091,303.535,0.0
51469.0,STARLINK-3182,PAYLOAD,2022-02-14 06:00:00,15.86194997,0.0003168999999999,53.2174,120.7202,260.3387,32.735,-0.0035954,-0.00833234,0.0,0 STARLINK-3182,1 51469U 22010P   22045.25001157 -.00833234  00000-0 -35954-2 0  9997,2 51469  53.2174 120.7202 0003169 260.3387  32.7350 15.86194997  2967,6691.099,90.783,315.084,310.844,0.0
51469.0,STARLINK-3182,PAYLOAD,2022-02-14 14:00:01,15.85601716,8.39e-05,53.2176,119.0425,245.5581,151.6938,-0.0039603,-0.00885105,0.0,0 STARLINK-3182,1 51469U 22010P   22045.58334491 -.00885105  00000-0 -39603-2 0  9992,2 51469  53.2176 119.0425 0000839 245.5581 151.6938 15.85601716  2222,6692.768,90.817,315.195,314.071,0.0
51469.0,STARLINK-3182,PAYLOAD,2022-02-14 20:00:01,15.85127349,4.820000000000001e-05,53.2172,117.7819,120.1224,264.7821,-0.0040305,-0.00880541,0.0,0 STARLINK-3182,1 51469U 22010P   22045.83334491 -.00880541  00000-0 -40305-2 0  9990,2 51469  53.2172 117.7819 0000482 120.1224 264.7821 15.85127349  3050,6694.103,90.844,316.291,315.646,0.0
51469.0,STARLINK-3182,PAYLOAD,2022-02-15 14:00:01,15.83600995,9.54e-05,53.2174,114.0089,83.4981,261.8683,-0.0035897,-0.00740684,0.0,0 STARLINK-3182,1 51469U 22010P   22046.58334491 -.00740684  00000-0 -35897-2 0  9996,2 51469  53.2174 114.0089 0000954  83.4981 261.8683 15.83600995  2386,6698.404,90.932,320.908,319.63,0.0
51469.0,STARLINK-3182,PAYLOAD,2022-02-15 22:00:01,15.83081208,9.44e-05,53.2176,112.3329,96.8909,349.653,-0.0044357,-0.00878576,0.0,0 STARLINK-3182,1 51469U 22010P   22046.91668981 -.00878576  00000-0 -44357-2 0  9990,2 51469  53.2176 112.3329 0000944  96.8909 349.6530 15.83081208  3234,6699.87,90.962,322.368,321.103,0.0
51469.0,STARLINK-3182,PAYLOAD,2022-02-16 14:00:01,15.81821774,0.0001074,53.2175,108.9905,82.6503,203.9009,-0.0046982,-0.00876974,0.0,0 STARLINK-3182,1 51469U 22010P   22047.58334491 -.00876974  00000-0 -46982-2 0  9996,2 51469  53.2175 108.9905 0001074  82.6503 203.9009 15.81821774  2557,6703.426,91.034,326.011,324.571,0.0
51469.0,STARLINK-3182,PAYLOAD,2022-02-16 22:00:00,15.81192514,0.0001018,53.2175,107.3186,59.7189,325.7364,-0.0048376,-0.0087677,0.0,0 STARLINK-3182,1 51469U 22010P   22047.91667824 -.00876770  00000-0 -48376-2 0  9995,2 51469  53.2175 107.3186 0001018  59.7189 325.7364 15.81192514  3386,6705.204000000002,91.071,327.7519999999999,326.387,0.0
51469.0,STARLINK-3182,PAYLOAD,2022-02-17 14:00:01,15.79822038,0.0001348,53.2174,103.9847,71.1937,149.8576,-0.0042234,-0.00730916,0.0,0 STARLINK-3182,1 51469U 22010P   22048.58334491 -.00730916  00000-0 -42234-2 0  9998,2 51469  53.2174 103.9847 0001348  71.1937 149.8576 15.79822038  2710,6709.081,91.15,331.851,330.042,0.0
51469.0,STARLINK-3182,PAYLOAD,2022-02-17 22:00:00,15.79250207,0.0001048,53.2174,102.3178,53.9975,263.6563,-0.0048015,-0.00802556,0.0,0 STARLINK-3182,1 51469U 22010P   22048.91667824 -.00802556  00000-0 -48015-2 0  9997,2 51469  53.2174 102.3178 0001048  53.9975 263.6563 15.79250207  3543,6710.701,91.183,333.269,331.86300000000006,0.0
51469.0,STARLINK-3182,PAYLOAD,2022-02-18 14:00:01,15.78043364,0.0001083,53.2174,98.994,74.2371,74.3897,-0.0055488,-0.00870799,0.0,0 STARLINK-3182,1 51469U 22010P   22049.58334491 -.00870799  00000-0 -55488-2 0  9998,2 51469  53.2174  98.9940 0001083  74.2371  74.3897 15.78043364  3657,6714.121999999999,91.252,336.714,335.26,0.0
51469.0,STARLINK-3182,PAYLOAD,2022-02-18 20:00:01,15.77578181,0.000116,53.2176,97.7468,58.8125,70.658,-0.0057437,-0.00881538,0.0,0 STARLINK-3182,1 51469U 22010P   22049.83334491 -.00881538  00000-0 -57437-2 0  9995,2 51469  53.2176  97.7468 0001160  58.8125  70.6580 15.77578181  2917,6715.441999999999,91.279,338.086,336.528,0.0
